[{"OBJECT_NAME":"STARLINK-3912","OBJECT_ID":"2022-049BD","EPOCH":"2026-03-09T07:42:07.965792","MEAN_MOTION":15.0883763,"ECCENTRICITY":0.00013181,"INCLINATION":53.2171,"RA_OF_ASC_NODE":40.8031,"ARG_OF_PERICENTER":87.8622,"MEAN_ANOMALY":272.2521,"EPHEMERIS_TYPE":0,"CLASSIFICATION_TYPE":"U","NORAD_CAT_ID":52502,"ELEMENT_SET_NO":999,"REV_AT_EPOCH":21247,"BSTAR":-7.8261863e-5,"MEAN_MOTION_DOT":-1.533e-5,"MEAN_MOTION_DDOT":0},{"OBJECT_NAME":"LEMUR-2-STELLA","OBJECT_ID":"2024-149BT","EPOCH":"2026-03-09T17:26:15.951264","MEAN_MOTION":15.09464064,"ECCENTRICITY":0.0001299,"INCLINATION":97.6764,"RA_OF_ASC_NODE":150.9122,"ARG_OF_PERICENTER":95.1117,"MEAN_ANOMALY":265.026,"EPHEMERIS_TYPE":0,"CLASSIFICATION_TYPE":"U","NORAD_CAT_ID":60533,"ELEMENT_SET_NO":999,"REV_AT_EPOCH":8548,"BSTAR":0.00085776432,"MEAN_MOTION_DOT":0.00013685,"MEAN_MOTION_DDOT":0}]
